ONEWEB-0456             
1 51646U 22012AA  23351.18366560  .00000595  00000+0  16672-2 0  9990
2 51646  87.8901 217.5907 0001570  93.8642 266.2664 13.10370754 89777
ONEWEB-0457             
1 51647U 22012AB  23351.61906075  .00000594  00000+0  16640-2 0  9994
2 51647  87.8914 217.5108 0001571  64.9471 295.1820 13.10375395 89833
ONEWEB-0461             
1 51649U 22012AD  23351.62705850 -.00010116  00000+0 -26187-1 0  9994
2 51649  87.9203 187.2923 0001642  93.1453 266.9867 13.17464600 95006
ONEWEB-0463             
1 51650U 22012AE  23351.61003922 -.00005746  00000+0 -14867-1 0  9991
2 51650  87.9202 187.3343 0001737  77.2091 282.9235 13.17533080 93497
ONEWEB-0464             
1 51651U 22012AF  23351.17876736  .00000192  00000+0  51323-3 0  9992
2 51651  87.8911 217.6001 0001345  99.8688 260.2591 13.10372730 89753
ONEWEB-0473             
1 51653U 22012AH  23351.62879339  .00000626  00000+0  17561-2 0  9993
2 51653  87.8913 217.5078 0001258  83.6935 276.4336 13.10374243 89790
